ENDUROSAT ONE           
1 43551U 98067NZ  20289.40008140  .12819970  12606-4  34454-3 0  9995
2 43551  51.6143   6.3935 0004068 320.9805  39.0930 16.45548142129489
EQUISAT                 
1 43552U 98067PA  20301.35213769  .00103276  00000-0  41796-3 0  9990
2 43552  51.6289 326.6893 0002247 354.8925   5.2056 15.85494306131042
AEROCUBE 12A            
1 43556U 18046C   20301.11714180  .00003830  00000-0  14110-3 0  9995
2 43556  51.6402 192.7510 0008605  51.3508 308.8241 15.30240407127539
AEROCUBE 12B            
1 43557U 18046D   20301.13890783  .00001975  00000-0  79519-4 0  9995
2 43557  51.6403 193.6293 0008784  50.8412 309.3347 15.29896545127479
UITMSAT-1               
1 43589U 98067PD  20301.07584341  .00272268  40746-4  63110-3 0  9993
2 43589  51.6292 320.8233 0005366  26.7757 333.3527 15.96628819126832
MAYA-1                  
1 43590U 98067PE  20300.31600389  .00244887  34912-4  58073-3 0  9998
2 43590  51.6244 324.6749 0005232  26.4606 333.6669 15.96238779126648
BHUTAN-1                
1 43591U 98067PF  20301.45462394  .00278156  42479-4  61079-3 0  9990
2 43591  51.6290 318.1872 0005269  31.9589 328.1738 15.97603611126835
SIRIUSSAT-1             
1 43595U 98067PG  20300.35738677  .00064002  00000-0  23108-3 0  9996
2 43595  51.6344 333.3054 0008370  15.9423 345.7047 15.87966412125719
SIRIUSSAT-2             
1 43596U 98067PH  20300.55307371  .00120550  00000-0  43069-3 0  9991
2 43596  51.6171 333.1809 0005933  27.4730 332.5181 15.87961233125736
SURFSAT                 
1 43614U 18070B   20300.83885778  .00005520  00000-0  13863-3 0  9999
2 43614  93.0294 208.9954 0014640 177.6739 182.4587 15.39911764118695
CP7 (DAVE)              
1 43615U 18070C   20300.81913951  .00005121  00000-0  12939-3 0  9993
2 43615  93.0297 208.9690 0014814 177.6227 182.5101 15.39725418118682
ELFIN-B                 
1 43616U 18070D   20300.86256478  .00008211  00000-0  19608-3 0  9996
2 43616  93.0255 208.9795 0014988 177.9772 182.1546 15.41409855118757
ELFIN-A                 
1 43617U 18070E   20301.07207145  .00008089  00000-0  19154-3 0  9997
2 43617  93.0309 209.6914 0014644 173.1452 187.0006 15.41672973118793
CUBEBEL-1 (BSUSAT-1)    
1 43666U 18083E   20301.35557377  .00001382  00000-0  70178-4 0  9994
2 43666  97.4807 326.4735 0013211 260.3449 109.3479 15.18512553110638
CICERO 10               
1 43690U 18088A   20301.26369140  .00001632  00000-0  72803-4 0  9990
2 43690  85.0393 351.4663 0014836 177.6548 182.4765 15.20457548108766
IRVINE01                
1 43693U 18088D   20300.69096101  .00004760  00000-0  19713-3 0  9998
2 43693  85.0367 350.1118 0018403 160.7632 199.4309 15.23481305108822
PROXIMA I               
1 43694U 18088E   20301.10462715  .00001559  00000-0  65760-4 0  9991
2 43694  85.0334 349.7712 0020115 153.0791 207.1499 15.22203869108862
PROXIMA II              
1 43696U 18088G   20301.10273462  .00001549  00000-0  65325-4 0  9998
2 43696  85.0335 349.7775 0020157 153.0199 207.2096 15.22204319108867
FACSAT-1                
1 43721U 18096C   20301.42757150  .00002528  00000-0  96047-4 0  9995
2 43721  97.4099  14.2345 0017819  21.8189  36.4205 15.27603187106536
CENTAURI-2              
1 43722U 18096D   20300.93439744  .00004031  00000-0  14854-3 0  9993
2 43722  97.4118  14.1599 0017784  22.7611 337.4413 15.28257712106478
INNOSAT-2               
1 43738U 18096V   20301.39796291  .00004726  00000-0  15893-3 0  9999
2 43738  97.4141  17.1640 0023404  24.7474  43.0399 15.31044238106717
SIRION PATHFINDER-2     
1 43759U 18099B   20300.73662167  .00000240  00000-0  26898-4 0  9991
2 43759  97.6938  10.0754 0015701 104.7047 255.5937 14.95332988103558
CORVUS-BC 4             
1 43767U 18099K   20300.72656282  .00000626  00000-0  62688-4 0  9995
2 43767  97.6906   9.3311 0013217 108.6271 251.6361 14.94777594103513
MOVE-II                 
1 43780U 18099Y   20301.47218866  .00001151  00000-0  10879-3 0  9993
2 43780  97.6947  10.7767 0014967 112.4426 247.8382 14.95531028103647
SPACEBEE-7              
1 43816U 18099BL  20300.91822695  .00000286  00000-0  30745-4 0  9995
2 43816  97.6961  10.7034 0014741  99.2813 261.0076 14.95801939103146
SPACEBEE-5              
1 43817U 18099BM  20300.87903801  .00002099  00000-0  18921-3 0  9995
2 43817  97.7025  11.3417 0014655 100.4859 259.8014 14.96560705103163
SPACEBEE-6              
1 43818U 18099BN  20301.46519246  .00000964  00000-0  90850-4 0  9999
2 43818  97.6977  11.4504 0014678  98.0844 262.2043 14.96035365103381
SHIELDS 1               
1 43850U 18104B   20300.67944981  .00000931  00000-0  39540-4 0  9995
2 43850  85.0270  88.5863 0013164 314.4071  45.6092 15.21501820103428
STF-1                   
1 43852U 18104D   20301.48499619  .00002057  00000-0  89395-4 0  9994
2 43852  85.0312  88.6729 0013252 327.2433  32.7985 15.21552378103524
ZACUBE-2                
1 43907U 18111AH  20301.52429720  .00000984  00000-0  42289-4 0  9992
2 43907  97.2507 197.2042 0022715  40.3719  82.1016 15.24734964102131
LUME 1                  
1 43908U 18111AJ  20300.79204606  .00002006  00000-0  81928-4 0  9995
2 43908  97.2511 196.7680 0022365  42.2431 318.0525 15.25309057102040
AOBA VELOX-IV           
1 43940U 19003J   20301.11629234  .00003733  00000-0  14891-3 0  9999
2 43940  97.2137 347.8020 0025167 115.8545 244.5293 15.25493194 98712
CATSAT-2                
1 44029U 98067PV  20301.47641917  .00045650  00000-0  36274-3 0  9999
2 44029  51.6394   4.6344 0002351 270.9392  89.1336 15.70764315 99235
DELPHINI                
1 44030U 98067PW  20300.49325553  .00052756  00000-0  38712-3 0  9991
2 44030  51.6341   6.8734 0001739 275.9785  84.1015 15.72596024 99080
UNITE                   
1 44031U 98067PX  20300.80473638  .00021241  00000-0  22417-3 0  9995
2 44031  51.6389  18.8710 0001808 220.7635 139.3225 15.64169114 98957
CATSAT-1                
1 44033U 98067PZ  20300.90370270  .00043364  00000-0  34594-3 0  9995
2 44033  51.6396   7.5691 0002295 266.6132  93.4603 15.70692744 99051
RAAVANA-1               
1 44329U 98067QE  20301.48377500  .00023680  00000-0  28171-3 0  9993
2 44329  51.6394  30.9899 0004629 131.2329 228.9064 15.60995282 77600
UGUISU                  
1 44330U 98067QF  20300.54444896  .00024710  00000-0  29552-3 0  9993
2 44330  51.6376  35.9308 0004671 127.7687 232.3730 15.60829957 77431
NEPALISAT-1             
1 44331U 98067QG  20301.47496109  .00024310  00000-0  28892-3 0  9993
2 44331  51.6376  30.8977 0004589 134.3338 225.8033 15.61005018 77598
SPOOQY-1                
1 44332U 98067QH  20300.72048891  .00023816  00000-0  28551-3 0  9994
2 44332  51.6384  34.8687 0003797 133.7951 226.3357 15.60794426 77439
SPACEBEE-9              
1 44370U 19037F   20300.71445354  .00019608  00000-0  40188-3 0  9994
2 44370  45.0052 100.7721 0014606 245.1345 114.8027 15.45707990 74893
SPACEBEE-8              
1 44371U 19037G   20301.50180159  .00043487  00000-0  68932-3 0  9991
2 44371  45.0050  84.6951 0013522 263.1459  96.7896 15.52649757 75133
IOD-1 GEMS              
1 44385U 98067QK  20301.52012175  .00043704  00000-0  42858-3 0  9991
2 44385  51.6395  26.0260 0002085  52.8300 307.2886 15.65625084 75136
MOVE-IIB                
1 44398U 19038N   20301.14374819  .00002478  00000-0  14443-3 0  9992
2 44398  97.5512 260.8226 0026409  36.3605 323.9418 15.12639933 72482
SONATE                  
1 44400U 19038Q   20300.81944848  .00001190  00000-0  72451-4 0  9998
2 44400  97.5541 260.5038 0026278  36.8216 323.4813 15.12093313 72427
LUCKY-7                 
1 44406U 19038W   20300.81111173  .00001229  00000-0  74124-4 0  9993
2 44406  97.5564 260.6463 0025590  36.5168 323.7801 15.12386827 72425
BEESAT 9                
1 44412U 19038AC  20301.39621506  .00001620  00000-0  96194-4 0  9996
2 44412  97.5556 261.2102 0023763  40.3334 319.9654 15.12523702 72213
JAISAT-1                
1 44419U 19038F   20301.04366571  .00001750  00000-0  10233-3 0  9996
2 44419  97.5556 261.2257 0022615  40.5496 319.7414 15.13007319 72491
SWIATOWID               
1 44426U 98067QL  20301.43997021  .00054707  00000-0  49382-3 0  9993
2 44426  51.6410  24.5141 0002569  42.6933  43.2964 15.67587060 75167
KRAKSAT                 
1 44427U 98067QM  20301.44737786  .00015921  00000-0  21331-3 0  9994
2 44427  51.6415  36.6346 0003438  86.9864 349.3199 15.58151113 75047
VCC A                   
1 44428U 98067QN  20301.47147240  .00023086  00000-0  28350-3 0  9997
2 44428  51.6414  33.2092 0002139  91.9834 268.1404 15.60186918 75094
ENTRYSAT                
1 44429U 98067QP  20301.52548442  .00027513  00000-0  31511-3 0  9995
2 44429  51.6385  30.5212 0001914  74.9619 285.1587 15.61900352 75131
VCC C                   
1 44430U 98067QQ  20300.53686716  .00040345  00000-0  42135-3 0  9996
2 44430  51.6383  32.9225 0001150  71.2746 288.8374 15.64072427 73839
VCC B                   
1 44431U 98067QR  20301.08182014  .00025311  00000-0  30922-3 0  9997
2 44431  51.6386  35.0733 0002258  91.2471 268.8781 15.60264702 74979
ATL-1                   
1 44830U 19084G   20283.37625441  .14504533  23319-5  28099-3 0  9997
2 44830  96.9282 155.2233 0011473 239.9810 120.0357 16.46538413 48546
SMOG-P                  
1 44832U 19084J   20272.06303716  .11453400  23230-5  63587-3 0  9997
2 44832  96.9437 144.0914 0010614 231.8961 128.1384 16.41416157 46773
DUCHIFAT-3              
1 44854U 19089C   20301.44138203  .00000632  00000-0  57382-4 0  9993
2 44854  36.9668  38.2731 0008016  40.8515 319.2838 14.99169034 48111
EYESAT-NANO             
1 44877U 19092E   20301.07022486  .00001825  00000-0  95395-4 0  9997
2 44877  97.4567 122.2374 0012159 283.4299  76.5579 15.17086873 47541
ORBITAL FACTORY 2 (OF-2)
1 45113U 19071C   20301.44247670  .00003557  00000-0  11802-3 0  9997
2 45113  51.6421  85.7260 0013020 170.6376 189.4851 15.33890854 41387
